NORAD_CAT_ID,OBJECT_NAME,OBJECT_TYPE,EPOCH,MEAN_MOTION,ECCENTRICITY,INCLINATION,RA_OF_ASC_NODE,ARG_OF_PERICENTER,MEAN_ANOMALY,BSTAR,MEAN_MOTION_DOT,MEAN_MOTION_DDOT,TLE_LINE0,TLE_LINE1,TLE_LINE2,SEMIMAJOR_AXIS,PERIOD,APOGEE,PERIGEE,DECAYED
50825.0,STARLINK-3332,PAYLOAD,2024-02-21 00:41:41,15.08852324,0.000129,53.2157,285.4985,81.645,278.4688,0.00032181,4.839e-05,0.0,0 STARLINK-3332,1 50825U 22001Y   24052.02895757  .00004839  00000-0  32181-3 0  9993,2 50825  53.2157 285.4985 0001290  81.6450 278.4688 15.08852324118801,6917.843,95.437,540.6,538.815,0.0
50825.0,STARLINK-3332,PAYLOAD,2024-02-21 08:38:37,15.08844543,0.0001286,53.2152,284.0121,87.7565,272.3574,0.00029157,4.356e-05,0.0,0 STARLINK-3332,1 50825U 22001Y   24052.36016092  .00004356  00000-0  29157-3 0  9990,2 50825  53.2152 284.0121 0001286  87.7565 272.3574 15.08844543118858,6917.867,95.437,540.621,538.842,0.0
50825.0,STARLINK-3332,PAYLOAD,2024-02-21 19:46:20,15.08834232,0.000138,53.216,281.9277,87.3886,272.7265,7.0588e-05,8.35e-06,0.0,0 STARLINK-3332,1 50825U 22001Y   24052.82384563  .00000835  00000-0  70588-4 0  9995,2 50825  53.2160 281.9277 0001380  87.3886 272.7265 15.08834232118925,6917.898,95.438,540.718,538.808,0.0
50825.0,STARLINK-3332,PAYLOAD,2024-02-21 21:21:43,15.08836656,0.0001249,53.2145,281.6308,89.3775,270.736,6.4447e-05,7.38e-06,0.0,0 STARLINK-3332,1 50825U 22001Y   24052.89008449  .00000738  00000-0  64447-4 0  9997,2 50825  53.2145 281.6308 0001249  89.3775 270.7360 15.08836656117669,6917.891,95.438,540.62,538.892,0.0
50825.0,STARLINK-3332,PAYLOAD,2024-02-22 08:29:25,15.0884227,0.0001383,53.2149,279.5508,87.1222,272.9928,0.00015214,2.134e-05,0.0,0 STARLINK-3332,1 50825U 22001Y   24053.35376409  .00002134  00000-0  15214-3 0  9992,2 50825  53.2149 279.5508 0001383  87.1222 272.9928 15.08842270117734,6917.873,95.437,540.695,538.782,0.0
50825.0,STARLINK-3332,PAYLOAD,2024-02-22 19:37:07,15.08845405,0.0001385,53.2149,277.4684,89.4705,270.6446,0.00018444,2.649e-05,0.0,0 STARLINK-3332,1 50825U 22001Y   24053.81744255  .00002649  00000-0  18444-3 0  9990,2 50825  53.2149 277.4684 0001385  89.4705 270.6446 15.08845405119071,6917.864,95.437,540.687,538.771,0.0
50825.0,STARLINK-3332,PAYLOAD,2024-02-22 21:12:30,15.08846368,0.0001395,53.2148,277.172,88.282,271.8332,0.00015162,2.126e-05,0.0,0 STARLINK-3332,1 50825U 22001Y   24053.88368202  .00002126  00000-0  15162-3 0  9995,2 50825  53.2148 277.1720 0001395  88.2820 271.8332 15.08846368117810,6917.861,95.437,540.691,538.761,0.0
50825.0,STARLINK-3332,PAYLOAD,2024-02-23 08:20:12,15.08846284,0.00014,53.2146,275.0905,90.0134,270.1019,0.00020696,3.008e-05,0.0,0 STARLINK-3332,1 50825U 22001Y   24054.34736185  .00003008  00000-0  20696-3 0  9994,2 50825  53.2146 275.0905 0001400  90.0134 270.1019 15.08846284117884,6917.861,95.437,540.695,538.758,0.0
50825.0,STARLINK-3332,PAYLOAD,2024-02-23 21:03:17,15.08844862,0.0001472,53.2152,272.711,92.0023,268.1138,0.00021231,3.093e-05,0.0,0 STARLINK-3332,1 50825U 22001Y   24054.87728294  .00003093  00000-0  21231-3 0  9994,2 50825  53.2152 272.7110 0001472  92.0023 268.1138 15.08844862119231,6917.866,95.437,540.749,538.712,0.0
50825.0,STARLINK-3332,PAYLOAD,2024-02-24 00:14:03,15.08845989,0.0001512,53.2155,272.1157,94.2836,265.8329,0.00019496,2.817e-05,0.0,0 STARLINK-3332,1 50825U 22001Y   24055.00976165  .00002817  00000-0  19496-3 0  9995,2 50825  53.2155 272.1157 0001512  94.2836 265.8329 15.08845989117987,6917.862,95.437,540.773,538.681,0.0
50825.0,STARLINK-3332,PAYLOAD,2024-02-24 20:54:04,15.08841222,0.000155,53.215,268.25,93.6657,266.4512,5.6024e-05,6.04e-06,0.0,0 STARLINK-3332,1 50825U 22001Y   24055.87088457  .00000604  00000-0  56024-4 0  9999,2 50825  53.2150 268.2500 0001550  93.6657 266.4512 15.08841222119389,6917.877,95.437,540.814,538.669,0.0
50825.0,STARLINK-3332,PAYLOAD,2024-02-25 14:23:18,15.08840396,0.0001512,53.2146,264.9792,93.5444,266.5721,8.9956e-05,1.144e-05,0.0,0 STARLINK-3332,1 50825U 22001Y   24056.59952495  .00001144  00000-0  89956-4 0  9991,2 50825  53.2146 264.9792 0001512  93.5444 266.5721 15.08840396118227,6917.879,95.438,540.79,538.698,0.0
50825.0,STARLINK-3332,PAYLOAD,2024-02-25 20:44:51,15.08846663,0.00013,53.2148,263.7905,91.3288,268.7853,0.00017989,2.577e-05,0.0,0 STARLINK-3332,1 50825U 22001Y   24056.86448182  .00002577  00000-0  17989-3 0  9991,2 50825  53.2148 263.7905 0001300  91.3288 268.7853 15.08846663118266,6917.86,95.437,540.624,538.826,0.0
50825.0,STARLINK-3332,PAYLOAD,2024-02-26 19:00:14,15.08849362,0.0001093,53.2151,259.6295,94.251,265.8607,-3.3303e-05,-8.18e-06,0.0,0 STARLINK-3332,1 50825U 22001Y   24057.79184024 -.00000818  00000-0 -33303-4 0  9993,2 50825  53.2151 259.6295 0001093  94.2510 265.8607 15.08849362119675,6917.852,95.437,540.473,538.961,0.0
50825.0,STARLINK-3332,PAYLOAD,2024-02-27 06:07:56,15.08848938,0.0001199,53.2138,257.542,72.5653,287.5471,0.00019017,2.741e-05,0.0,0 STARLINK-3332,1 50825U 22001Y   24058.25551884  .00002741  00000-0  19017-3 0  9997,2 50825  53.2138 257.5420 0001199  72.5653 287.5471 15.08848938118476,6917.853,95.437,540.548,538.889,0.0
50825.0,STARLINK-3332,PAYLOAD,2024-02-27 18:51:02,15.08833064,0.0001545,53.2165,255.1704,94.9711,265.1458,-8.0256e-05,-1.565e-05,0.0,0 STARLINK-3332,1 50825U 22001Y   24058.78544853 -.00001565  00000-0 -80256-4 0  9992,2 50825  53.2165 255.1704 0001545  94.9711 265.1458 15.08833064119824,6917.902,95.438,540.835,538.698,0.0
50825.0,STARLINK-3332,PAYLOAD,2024-02-27 22:01:49,15.08833264,0.0001535,53.2166,254.5755,94.371,265.7458,-7.7396e-05,-1.519e-05,0.0,0 STARLINK-3332,1 50825U 22001Y   24058.91792855 -.00001519  00000-0 -77396-4 0  9994,2 50825  53.2166 254.5755 0001535  94.3710 265.7458 15.08833264118575,6917.901,95.438,540.828,538.704,0.0
50825.0,STARLINK-3332,PAYLOAD,2024-02-28 05:58:44,15.08834333,0.0001427,53.2155,253.0832,81.4597,278.6557,-1.8627e-05,-5.84e-06,0.0,0 STARLINK-3332,1 50825U 22001Y   24059.24912948 -.00000584  00000-0 -18627-4 0  9991,2 50825  53.2155 253.0832 0001427  81.4597 278.6557 15.08834333118620,6917.898,95.438,540.75,538.776,0.0
50825.0,STARLINK-3332,PAYLOAD,2024-02-28 20:17:12,15.08841106,0.0001457,53.2157,250.406,91.0826,269.0333,5.7838e-05,6.33e-06,0.0,0 STARLINK-3332,1 50825U 22001Y   24059.84528793  .00000633  00000-0  57838-4 0  9998,2 50825  53.2157 250.4060 0001457  91.0826 269.0333 15.08841106119983,6917.877,95.437,540.75,538.734,0.0
50825.0,STARLINK-3332,PAYLOAD,2024-02-29 12:11:04,15.08844275,0.0001541,53.2156,247.4353,85.9047,274.2121,2.5017e-05,1.1e-06,0.0,0 STARLINK-3332,1 50825U 22001Y   24060.50768832  .00000110  00000-0  25017-4 0  9997,2 50825  53.2156 247.4353 0001541  85.9047 274.2121 15.08844275118818,6917.867,95.437,540.798,538.666,0.0
50825.0,STARLINK-3332,PAYLOAD,2024-02-29 21:43:23,15.08844731,0.0001405,53.2154,245.6509,88.6359,271.4794,0.00026286,3.898e-05,0.0,0 STARLINK-3332,1 50825U 22001Y   24060.90513007  .00003898  00000-0  26286-3 0  9997,2 50825  53.2154 245.6509 0001405  88.6359 271.4794 15.08844731118872,6917.866,95.437,540.703,538.759,0.0
50825.0,STARLINK-3332,PAYLOAD,2024-03-01 05:40:18,15.08845325,0.0001374,53.2149,244.1632,89.2611,270.8539,0.00022411,3.281e-05,0.0,0 STARLINK-3332,1 50825U 22001Y   24061.23633021  .00003281  00000-0  22411-3 0  9995,2 50825  53.2149 244.1632 0001374  89.2611 270.8539 15.08845325118926,6917.864,95.437,540.68,538.779,0.0
50825.0,STARLINK-3332,PAYLOAD,2024-03-01 18:23:23,15.08848585,0.0001388,53.2148,241.7847,89.0317,271.0834,0.00023629,3.475e-05,0.0,0 STARLINK-3332,1 50825U 22001Y   24061.76624820  .00003475  00000-0  23629-3 0  9997,2 50825  53.2148 241.7847 0001388  89.0317 271.0834 15.08848585119004,6917.854,95.437,540.679,538.759,0.0
50825.0,STARLINK-3332,PAYLOAD,2024-03-02 18:14:11,15.08842642,0.0001247,53.2144,237.3252,83.9084,276.2051,0.00010658,1.409e-05,0.0,0 STARLINK-3332,1 50825U 22001Y   24062.75984977  .00001409  00000-0  10658-3 0  9992,2 50825  53.2144 237.3252 0001247  83.9084 276.2051 15.08842642120423,6917.872,95.437,540.6,538.875,0.0
50825.0,STARLINK-3332,PAYLOAD,2024-03-03 14:54:11,15.08840743,0.0001389,53.2157,233.4584,87.2787,272.8365,5.0439e-05,5.15e-06,0.0,0 STARLINK-3332,1 50825U 22001Y   24063.62097046  .00000515  00000-0  50439-4 0  9990,2 50825  53.2157 233.4584 0001389  87.2787 272.8365 15.08840743119288,6917.878,95.438,540.704,538.782,0.0
50825.0,STARLINK-3332,PAYLOAD,2024-03-03 18:04:57,15.08846084,0.0001396,53.2169,232.8651,87.6448,272.4704,1.2042e-05,-9.6e-07,0.0,0 STARLINK-3332,1 50825U 22001Y   24063.75344885 -.00000096  00000-0  12042-4 0  9993,2 50825  53.2169 232.8651 0001396  87.6448 272.4704 15.08846084119305,6917.862,95.437,540.693,538.761,0.0
50825.0,STARLINK-3332,PAYLOAD,2024-03-04 03:37:16,15.08853268,0.0001403,53.217,231.0802,88.2523,271.863,7.1572e-05,8.52e-06,0.0,0 STARLINK-3332,1 50825U 22001Y   24064.15088104  .00000852  00000-0  71572-4 0  9999,2 50825  53.2170 231.0802 0001403  88.2523 271.8630 15.08853268120637,6917.84,95.437,540.675,538.734,0.0
50825.0,STARLINK-3332,PAYLOAD,2024-03-04 11:34:12,15.08845462,0.0001976,53.2159,229.5918,80.592,279.5296,0.00016462,2.333e-05,0.0,0 STARLINK-3332,1 50825U 22001Y   24064.48208760  .00002333  00000-0  16462-3 0  9999,2 50825  53.2159 229.5918 0001976  80.5920 279.5296 15.08845462120680,6917.864,95.437,541.096,538.362,0.0
50825.0,STARLINK-3332,PAYLOAD,2024-03-04 14:44:58,15.08844592,0.0001709,53.2172,229.0012,100.5375,259.581,0.00011094,1.478e-05,0.0,0 STARLINK-3332,1 50825U 22001Y   24064.61456561  .00001478  00000-0  11094-3 0  9993,2 50825  53.2172 229.0012 0001709 100.5375 259.5810 15.08844592119430,6917.866,95.437,540.914,538.549,0.0
50825.0,STARLINK-3332,PAYLOAD,2024-03-04 19:31:07,15.0884615,0.0001495,53.2156,228.1062,83.1179,276.9983,0.00013351,1.838e-05,0.0,0 STARLINK-3332,1 50825U 22001Y   24064.81328500  .00001838  00000-0  13351-3 0  9994,2 50825  53.2156 228.1062 0001495  83.1179 276.9983 15.08846150119466,6917.862,95.437,540.761,538.692,0.0
